[{"OBJECT_NAME":"IRIDE-MS2-HEO-8","OBJECT_ID":"2025-135BM","EPOCH":"2026-03-09T23:04:08.225184","MEAN_MOTION":14.94180464,"ECCENTRICITY":0.0003471,"INCLINATION":97.7603,"RA_OF_ASC_NODE":184.687,"ARG_OF_PERICENTER":319.3554,"MEAN_ANOMALY":40.7407,"EPHEMERIS_TYPE":0,"CLASSIFICATION_TYPE":"U","NORAD_CAT_ID":64587,"ELEMENT_SET_NO":999,"REV_AT_EPOCH":3909,"BSTAR":0.00027897299,"MEAN_MOTION_DOT":2.931e-5,"MEAN_MOTION_DDOT":0},{"OBJECT_NAME":"CZ-6A DEB","OBJECT_ID":"2022-151SB","EPOCH":"2026-03-09T22:09:26.196768","MEAN_MOTION":14.85244417,"ECCENTRICITY":0.00728534,"INCLINATION":99.1392,"RA_OF_ASC_NODE":215.607,"ARG_OF_PERICENTER":235.4544,"MEAN_ANOMALY":123.9777,"EPHEMERIS_TYPE":0,"CLASSIFICATION_TYPE":"U","NORAD_CAT_ID":54938,"ELEMENT_SET_NO":999,"REV_AT_EPOCH":17622,"BSTAR":0.0039580306,"MEAN_MOTION_DOT":0.00035713,"MEAN_MOTION_DDOT":0}]
